$$SOE
2460154.500000000, A.D. 2023-Jul-29 00:00:00.0000, 2.354183855163971E+08, 3.232129327091193E+08, 8.832068388584194E+07,
2460161.500000000, A.D. 2023-Aug-05 00:00:00.0000, 2.277740618008394E+08, 3.309115559319928E+08, 8.881017740458432E+07,
2460168.500000000, A.D. 2023-Aug-12 00:00:00.0000, 2.199711306140551E+08, 3.383795433366871E+08, 8.923770476838924E+07,
2460175.500000000, A.D. 2023-Aug-19 00:00:00.0000, 2.120171477164976E+08, 3.456149505431474E+08, 8.960383042493995E+07,
2460182.500000000, A.D. 2023-Aug-26 00:00:00.0000, 2.039195714076517E+08, 3.526160538938313E+08, 8.990914776248848E+07,
2460189.500000000, A.D. 2023-Sep-02 00:00:00.0000, 1.956857591603729E+08, 3.593813405399120E+08, 9.015427685796994E+07,
2460196.500000000, A.D. 2023-Sep-09 00:00:00.0000, 1.873229648213758E+08, 3.659094986965865E+08, 9.033986233424239E+07,
2460203.500000000, A.D. 2023-Sep-16 00:00:00.0000, 1.788383365038825E+08, 3.721994080223644E+08, 9.046657130372474E+07,
2460210.500000000, A.D. 2023-Sep-23 00:00:00.0000, 1.702389155488519E+08, 3.782501304197873E+08, 9.053509138108003E+07,
2460217.500000000, A.D. 2023-Sep-30 00:00:00.0000, 1.615316361786632E+08, 3.840609024559369E+08, 9.054612889048694E+07,
2460224.500000000, A.D. 2023-Oct-07 00:00:00.0000, 1.527233234540522E+08, 3.896311288616875E+08, 9.050040743454474E+07,
2460231.500000000, A.D. 2023-Oct-14 00:00:00.0000, 1.438206905374981E+08, 3.949603737974635E+08, 9.039866645446615E+07,
2460238.500000000, A.D. 2023-Oct-21 00:00:00.0000, 1.348303384605790E+08, 4.000483514912725E+08, 9.024165961364244E+07,
2460245.500000000, A.D. 2023-Oct-28 00:00:00.0000, 1.257587569428533E+08, 4.048949185061477E+08, 9.003015331524397E+07,
2460252.500000000, A.D. 2023-Nov-04 00:00:00.0000, 1.166123249821784E+08, 4.095000668605843E+08, 8.976492540017828E+07,
2460259.500000000, A.D. 2023-Nov-11 00:00:00.0000, 1.073973113647317E+08, 4.138639173975106E+08, 8.944676395595238E+07,
2460266.500000000, A.D. 2023-Nov-18 00:00:00.0000, 9.811987528778723E+07, 4.179867133341361E+08, 8.907646620809829E+07,
2460273.500000000, A.D. 2023-Nov-25 00:00:00.0000, 8.878606714510603E+07, 4.218688140118417E+08, 8.865483748686391E+07,
2460280.500000000, A.D. 2023-Dec-02 00:00:00.0000, 7.940182948316295E+07, 4.255106888301064E+08, 8.818269026288751E+07,
2460287.500000000, A.D. 2023-Dec-09 00:00:00.0000, 6.997299818782367E+07, 4.289129112987580E+08, 8.766084323637250E+07,
2460294.500000000, A.D. 2023-Dec-16 00:00:00.0000, 6.050530417145591E+07, 4.320761532128714E+08, 8.709012045034367E+07,
2460301.500000000, A.D. 2023-Dec-23 00:00:00.0000, 5.100437589188889E+07, 4.350011796295135E+08, 8.647135044816425E+07,
2460308.500000000, A.D. 2023-Dec-30 00:00:00.0000, 4.147574134776733E+07, 4.376888456874227E+08, 8.580536568007857E+07,
2460315.500000000, A.D. 2024-Jan-06 00:00:00.0000, 3.192482776338191E+07, 4.401400928978326E+08, 8.509300212390873E+07,
2460322.500000000, A.D. 2024-Jan-13 00:00:00.0000, 2.235696211926331E+07, 4.423559430898542E+08, 8.433509867771068E+07,
2460329.500000000, A.D. 2024-Jan-20 00:00:00.0000, 1.277737373906534E+07, 4.443374930903971E+08, 8.353249646234810E+07,
2460336.500000000, A.D. 2024-Jan-27 00:00:00.0000, 3.191196894637803E+06, 4.460859107838678E+08, 8.268603827063286E+07,
2460343.500000000, A.D. 2024-Feb-03 00:00:00.0000, -6.396527008607633E+06, 4.476024315940700E+08, 8.179656812166417E+07,
2460350.500000000, A.D. 2024-Feb-10 00:00:00.0000, -1.598084739779121E+07, 4.488883550887524E+08, 8.086493086827078E+07,
2460357.500000000, A.D. 2024-Feb-17 00:00:00.0000, -2.555690251961026E+07, 4.499450417066333E+08, 7.989197184277785E+07,
2460364.500000000, A.D. 2024-Feb-24 00:00:00.0000, -3.511991741982245E+07, 4.507739096136604E+08, 7.887853653639296E+07,
2460371.500000000, A.D. 2024-Mar-02 00:00:00.0000, -4.466520189261683E+07, 4.513764316480303E+08, 7.782547030436310E+07,
2460378.500000000, A.D. 2024-Mar-09 00:00:00.0000, -5.418814826735168E+07, 4.517541322832903E+08, 7.673361807668465E+07,
2460385.500000000, A.D. 2024-Mar-16 00:00:00.0000, -6.368422864329870E+07, 4.519085847993520E+08, 7.560382405210137E+07,
2460392.500000000, A.D. 2024-Mar-23 00:00:00.0000, -7.314899168147171E+07, 4.518414097641373E+08, 7.443693147372609E+07,
2460399.500000000, A.D. 2024-Mar-30 00:00:00.0000, -8.257806119843367E+07, 4.515542747932637E+08, 7.323378268789694E+07,
2460406.500000000, A.D. 2024-Apr-06 00:00:00.0000, -9.196713630885381E+07, 4.510488922113390E+08, 7.199521918520853E+07,
2460413.500000000, A.D. 2024-Apr-13 00:00:00.0000, -1.013119895711690E+08, 4.503270154432402E+08, 7.072208136463755E+07,
2460420.500000000, A.D. 2024-Apr-20 00:00:00.0000, -1.106084640928355E+08, 4.493904368083800E+08, 6.941520832595149E+07,
2460427.500000000, A.D. 2024-Apr-27 00:00:00.0000, -1.198524711141106E+08, 4.482409861516001E+08, 6.807543778229800E+07,
2460434.500000000, A.D. 2024-May-04 00:00:00.0000, -1.290399879846875E+08, 4.468805296011040E+08, 6.670360602595943E+07,
2460441.500000000, A.D. 2024-May-11 00:00:00.0000, -1.381670562973559E+08, 4.453109683461379E+08, 6.530054791589749E+07,
2460448.500000000, A.D. 2024-May-18 00:00:00.0000, -1.472297800989927E+08, 4.435342374512722E+08, 6.386709688034102E+07,
2460455.500000000, A.D. 2024-May-25 00:00:00.0000, -1.562243241561707E+08, 4.415523046958423E+08, 6.240408493070829E+07,
2460462.500000000, A.D. 2024-Jun-01 00:00:00.0000, -1.651469122172683E+08, 4.393671693771340E+08, 6.091234267592910E+07,
2460469.500000000, A.D. 2024-Jun-08 00:00:00.0000, -1.739938250261803E+08, 4.369808610506127E+08, 5.939269931202754E+07,
2460476.500000000, A.D. 2024-Jun-15 00:00:00.0000, -1.827613976893939E+08, 4.343954387488559E+08, 5.784598259426314E+07,
2460483.500000000, A.D. 2024-Jun-22 00:00:00.0000, -1.914460174026449E+08, 4.316129918517523E+08, 5.627301897952810E+07,
2460490.500000000, A.D. 2024-Jun-29 00:00:00.0000, -2.000441236579171E+08, 4.286356407844205E+08, 5.467463398399377E+07,
2460497.500000000, A.D. 2024-Jul-06 00:00:00.0000, -2.085522082839580E+08, 4.254655350651369E+08, 5.305165231017449E+07,
2460504.500000000, A.D. 2024-Jul-13 00:00:00.0000, -2.169668133728175E+08, 4.221048515207977E+08, 5.140489779460916E+07,
2460511.500000000, A.D. 2024-Jul-20 00:00:00.0000, -2.252845290807583E+08, 4.185557938159777E+08, 4.973519345192575E+07,
2460518.500000000, A.D. 2024-Jul-27 00:00:00.0000, -2.335019919609975E+08, 4.148205923339455E+08, 4.804336159676453E+07,
2460525.500000000, A.D. 2024-Aug-03 00:00:00.0000, -2.416158835567181E+08, 4.109015040327901E+08, 4.633022398759103E+07,
2460532.500000000, A.D. 2024-Aug-10 00:00:00.0000, -2.496229290895065E+08, 4.068008122711440E+08, 4.459660197643888E+07,
2460539.500000000, A.D. 2024-Aug-17 00:00:00.0000, -2.575198961960856E+08, 4.025208266242743E+08, 4.284331666140598E+07,
2460546.500000000, A.D. 2024-Aug-24 00:00:00.0000, -2.653035936852892E+08, 3.980638826668837E+08, 4.107118903674942E+07,
2460553.500000000, A.D. 2024-Aug-31 00:00:00.0000, -2.729708701994063E+08, 3.934323416592884E+08, 3.928104012411469E+07,
2460560.500000000, A.D. 2024-Sep-07 00:00:00.0000, -2.805186124143599E+08, 3.886285902612104E+08, 3.747369106090632E+07,
2460567.500000000, A.D. 2024-Sep-14 00:00:00.0000, -2.879437426940079E+08, 3.836550412670360E+08, 3.564996321868452E+07,
2460574.500000000, A.D. 2024-Sep-21 00:00:00.0000, -2.952432182285653E+08, 3.785141357742392E+08, 3.381067857083489E+07,
2460581.500000000, A.D. 2024-Sep-28 00:00:00.0000, -3.024140321443399E+08, 3.732083435568914E+08, 3.195666008987321E+07,
2460588.500000000, A.D. 2024-Oct-05 00:00:00.0000, -3.094532129136921E+08, 3.677401616427827E+08, 3.008873183734511E+07,
2460595.500000000, A.D. 2024-Oct-12 00:00:00.0000, -3.163578224273588E+08, 3.621121140716122E+08, 2.820771902261554E+07,
2460602.500000000, A.D. 2024-Oct-19 00:00:00.0000, -3.231249544818789E+08, 3.563267525636539E+08, 2.631444816876835E+07,
2460609.500000000, A.D. 2024-Oct-26 00:00:00.0000, -3.297517337146801E+08, 3.503866572973301E+08, 2.440974732279073E+07,
2460616.500000000, A.D. 2024-Nov-02 00:00:00.0000, -3.362353147295374E+08, 3.442944376463435E+08, 2.249444627404517E+07,
2460623.500000000, A.D. 2024-Nov-09 00:00:00.0000, -3.425728813162113E+08, 3.380527328961828E+08, 2.056937677364878E+07,
2460630.500000000, A.D. 2024-Nov-16 00:00:00.0000, -3.487616457389379E+08, 3.316642129396292E+08, 1.863537275222939E+07,
2460637.500000000, A.D. 2024-Nov-23 00:00:00.0000, -3.547988480474804E+08, 3.251315789008583E+08, 1.669327052752614E+07,
2460644.500000000, A.D. 2024-Nov-30 00:00:00.0000, -3.606817552031183E+08, 3.184575636449957E+08, 1.474390897911882E+07,
2460651.500000000, A.D. 2024-Dec-07 00:00:00.0000, -3.664076596009337E+08, 3.116449325931093E+08, 1.278812968609619E+07,
2460658.500000000, A.D. 2024-Dec-14 00:00:00.0000, -3.719738776784942E+08, 3.046964860660343E+08, 1.082677719077154E+07,
2460665.500000000, A.D. 2024-Dec-21 00:00:00.0000, -3.773777509317850E+08, 2.976150619167731E+08, 8.860699499583349E+06,
2460672.500000000, A.D. 2024-Dec-28 00:00:00.0000, -3.826166473665621E+08, 2.904035354850004E+08, 6.890748397672251E+06,
2460679.500000000, A.D. 2025-Jan-04 00:00:00.0000, -3.876879607874098E+08, 2.830648192481753E+08, 4.917779533191457E+06,
2460686.500000000, A.D. 2025-Jan-11 00:00:00.0000, -3.925891097482210E+08, 2.756018638276331E+08, 2.942652574078023E+06,
2460693.500000000, A.D. 2025-Jan-18 00:00:00.0000, -3.973175370841279E+08, 2.680176594316173E+08, 9.662314461965412E+05,
2460700.500000000, A.D. 2025-Jan-25 00:00:00.0000, -4.018707097831849E+08, 2.603152372614163E+08, -1.010615408341452E+06,
2460707.500000000, A.D. 2025-Feb-01 00:00:00.0000, -4.062461190098565E+08, 2.524976708505729E+08, -2.987014772600129E+06,
2460714.500000000, A.D. 2025-Feb-08 00:00:00.0000, -4.104412802236664E+08, 2.445680773568812E+08, -4.962088399870515E+06,
2460721.500000000, A.D. 2025-Feb-15 00:00:00.0000, -4.144537333659456E+08, 2.365296187873130E+08, -6.934952766842619E+06,
$$EOE